[{"OBJECT_NAME":"ICESAT-2","OBJECT_ID":"2018-070A","EPOCH":"2026-03-09T22:54:12.225888","MEAN_MOTION":15.28328617,"ECCENTRICITY":0.00038245,"INCLINATION":91.9993,"RA_OF_ASC_NODE":264.2397,"ARG_OF_PERICENTER":123.8941,"MEAN_ANOMALY":236.2673,"EPHEMERIS_TYPE":0,"CLASSIFICATION_TYPE":"U","NORAD_CAT_ID":43613,"ELEMENT_SET_NO":999,"REV_AT_EPOCH":41730,"BSTAR":0.00014022643,"MEAN_MOTION_DOT":3.87e-5,"MEAN_MOTION_DDOT":0},{"OBJECT_NAME":"STARLINK-30968","OBJECT_ID":"2023-191D","EPOCH":"2026-03-08T11:40:25.493088","MEAN_MOTION":15.27274459,"ECCENTRICITY":7.244e-5,"INCLINATION":42.9987,"RA_OF_ASC_NODE":110.54,"ARG_OF_PERICENTER":278.4439,"MEAN_ANOMALY":81.633,"EPHEMERIS_TYPE":0,"CLASSIFICATION_TYPE":"U","NORAD_CAT_ID":58511,"ELEMENT_SET_NO":999,"REV_AT_EPOCH":12528,"BSTAR":0.0021481981,"MEAN_MOTION_DOT":0.00058773,"MEAN_MOTION_DDOT":0}]
